{
  "type": "FeatureCollection",
  "features": [
    {
      "type": "Feature",
      "properties": {
        "norad_id": 44334,
        "name": "EUTELSAT 7C",
        "group": "eutelsat",
        "lat": 0.046033691460696614,
        "lon": -49.99095169163358,
        "alt_km": 35780.73658437844,
        "timestamp": "2025-12-10T14:53:36.793719+00:00",
        "meta_object_name": "EUTELSAT 7C",
        "meta_object_id": "2019-034B",
        "meta_epoch": "2025-12-10T00:54:38.687328",
        "meta_mean_motion": 1.00271046,
        "meta_eccentricity": 0.00033552,
        "meta_inclination": 0.0729,
        "meta_ra_of_asc_node": 178.2937,
        "meta_arg_of_pericenter": 64.3773,
        "meta_mean_anomaly": 216.9906,
        "meta_ephemeris_type": 0,
        "meta_classification_type": "U",
        "meta_norad_cat_id": 44334,
        "meta_element_set_no": 999,
        "meta_rev_at_epoch": 493,
        "meta_bstar": 0,
        "meta_mean_motion_dot": 5.1e-07,
        "meta_mean_motion_ddot": 0,
        "tle_line1": "1 44334U 19034B   25344.03794777  .00000051  00000+0  00000+0 0  9991",
        "tle_line2": "2 44334   0.0729 178.2937 0003355  64.3773 216.9906  1.00271046  4931"
      },
      "geometry": {
        "type": "Point",
        "coordinates": [
          -49.99095169163358,
          0.046033691460696614
        ]
      }
    },
    {
      "type": "Feature",
      "properties": {
        "norad_id": 44624,
        "name": "EUTELSAT 5 WEST B",
        "group": "eutelsat",
        "lat": -0.05798660147300687,
        "lon": -61.98315039692774,
        "alt_km": 35774.63395113676,
        "timestamp": "2025-12-10T14:53:36.793730+00:00",
        "meta_object_name": "EUTELSAT 5 WEST B",
        "meta_object_id": "2019-067A",
        "meta_epoch": "2025-12-10T02:31:38.699328",
        "meta_mean_motion": 1.00271292,
        "meta_eccentricity": 0.00034741,
        "meta_inclination": 0.0635,
        "meta_ra_of_asc_node": 343.3778,
        "meta_arg_of_pericenter": 276.5826,
        "meta_mean_anomaly": 212.0361,
        "meta_ephemeris_type": 0,
        "meta_classification_type": "U",
        "meta_norad_cat_id": 44624,
        "meta_element_set_no": 999,
        "meta_rev_at_epoch": 2254,
        "meta_bstar": 0,
        "meta_mean_motion_dot": -3.9e-07,
        "meta_mean_motion_ddot": 0,
        "tle_line1": "1 44624U 19067A   25344.10530902 -.00000039  00000+0  00000+0 0  9992",
        "tle_line2": "2 44624   0.0635 343.3778 0003474 276.5826 212.0361  1.00271292 22547"
      },
      "geometry": {
        "type": "Point",
        "coordinates": [
          -61.98315039692774,
          -0.05798660147300687
        ]
      }
    },
    {
      "type": "Feature",
      "properties": {
        "norad_id": 45027,
        "name": "EUTELSAT KONNECT",
        "group": "eutelsat",
        "lat": -0.050528930923328975,
        "lon": -49.81826996443971,
        "alt_km": 35780.200169123134,
        "timestamp": "2025-12-10T14:53:36.793741+00:00",
        "meta_object_name": "EUTELSAT KONNECT",
        "meta_object_id": "2020-005B",
        "meta_epoch": "2025-12-10T00:54:38.687328",
        "meta_mean_motion": 1.00268676,
        "meta_eccentricity": 0.00017287,
        "meta_inclination": 0.0718,
        "meta_ra_of_asc_node": 96.1497,
        "meta_arg_of_pericenter": 191.1313,
        "meta_mean_anomaly": 172.586,
        "meta_ephemeris_type": 0,
        "meta_classification_type": "U",
        "meta_norad_cat_id": 45027,
        "meta_element_set_no": 999,
        "meta_rev_at_epoch": 2244,
        "meta_bstar": 0,
        "meta_mean_motion_dot": 5.2e-07,
        "meta_mean_motion_ddot": 0,
        "tle_line1": "1 45027U 20005B   25344.03794777  .00000052  00000+0  00000+0 0  9992",
        "tle_line2": "2 45027   0.0718  96.1497 0001728 191.1313 172.5860  1.00268676 22446"
      },
      "geometry": {
        "type": "Point",
        "coordinates": [
          -49.81826996443971,
          -0.050528930923328975
        ]
      }
    },
    {
      "type": "Feature",
      "properties": {
        "norad_id": 49056,
        "name": "EUTELSAT QUANTUM",
        "group": "eutelsat",
        "lat": -0.007655748054652612,
        "lon": -9.26727844118628,
        "alt_km": 35783.074291028424,
        "timestamp": "2025-12-10T14:53:36.793752+00:00",
        "meta_object_name": "EUTELSAT QUANTUM",
        "meta_object_id": "2021-069B",
        "meta_epoch": "2025-12-10T04:24:38.914272",
        "meta_mean_motion": 1.00271276,
        "meta_eccentricity": 0.00037259,
        "meta_inclination": 0.0161,
        "meta_ra_of_asc_node": 19.5087,
        "meta_arg_of_pericenter": 252.6452,
        "meta_mean_anomaly": 280.869,
        "meta_ephemeris_type": 0,
        "meta_classification_type": "U",
        "meta_norad_cat_id": 49056,
        "meta_element_set_no": 999,
        "meta_rev_at_epoch": 1603,
        "meta_bstar": 0,
        "meta_mean_motion_dot": 1.29e-06,
        "meta_mean_motion_ddot": 0,
        "tle_line1": "1 49056U 21069B   25344.18378373  .00000129  00000+0  00000+0 0  9990",
        "tle_line2": "2 49056   0.0161  19.5087 0003725 252.6452 280.8690  1.00271276 16036"
      },
      "geometry": {
        "type": "Point",
        "coordinates": [
          -9.26727844118628,
          -0.007655748054652612
        ]
      }
    },
    {
      "type": "Feature",
      "properties": {
        "norad_id": 53765,
        "name": "EUTELSAT KONNECT VHTS",
        "group": "eutelsat",
        "lat": -0.03933717116213505,
        "lon": -54.274259344119045,
        "alt_km": 35782.080279208436,
        "timestamp": "2025-12-10T14:53:36.793762+00:00",
        "meta_object_name": "EUTELSAT KONNECT VHTS",
        "meta_object_id": "2022-110A",
        "meta_epoch": "2025-12-10T04:08:38.649120",
        "meta_mean_motion": 1.00271094,
        "meta_eccentricity": 0.00025691,
        "meta_inclination": 0.0651,
        "meta_ra_of_asc_node": 101.0901,
        "meta_arg_of_pericenter": 137.0657,
        "meta_mean_anomaly": 265.8631,
        "meta_ephemeris_type": 0,
        "meta_classification_type": "U",
        "meta_norad_cat_id": 53765,
        "meta_element_set_no": 999,
        "meta_rev_at_epoch": 493,
        "meta_bstar": 0,
        "meta_mean_motion_dot": 2e-07,
        "meta_mean_motion_ddot": 0,
        "tle_line1": "1 53765U 22110A   25344.17266955  .00000020  00000+0  00000+0 0  9991",
        "tle_line2": "2 53765   0.0651 101.0901 0002569 137.0657 265.8631  1.00271094  4934"
      },
      "geometry": {
        "type": "Point",
        "coordinates": [
          -54.274259344119045,
          -0.03933717116213505
        ]
      }
    },
    {
      "type": "Feature",
      "properties": {
        "norad_id": 54048,
        "name": "EUTELSAT HOTBIRD 13F",
        "group": "eutelsat",
        "lat": 0.015323182954295455,
        "lon": -44.00502941284738,
        "alt_km": 35780.02827084711,
        "timestamp": "2025-12-10T14:53:36.793773+00:00",
        "meta_object_name": "EUTELSAT HOTBIRD 13F",
        "meta_object_id": "2022-134A",
        "meta_epoch": "2025-12-10T06:13:38.752320",
        "meta_mean_motion": 1.0027045,
        "meta_eccentricity": 0.00019748,
        "meta_inclination": 0.0508,
        "meta_ra_of_asc_node": 290.7601,
        "meta_arg_of_pericenter": 64.7163,
        "meta_mean_anomaly": 190.1902,
        "meta_ephemeris_type": 0,
        "meta_classification_type": "U",
        "meta_norad_cat_id": 54048,
        "meta_element_set_no": 999,
        "meta_rev_at_epoch": 1148,
        "meta_bstar": 0,
        "meta_mean_motion_dot": 9e-07,
        "meta_mean_motion_ddot": 0,
        "tle_line1": "1 54048U 22134A   25344.25947630  .00000090  00000+0  00000+0 0  9994",
        "tle_line2": "2 54048   0.0508 290.7601 0001974  64.7163 190.1902  1.00270450 11484"
      },
      "geometry": {
        "type": "Point",
        "coordinates": [
          -44.00502941284738,
          0.015323182954295455
        ]
      }
    },
    {
      "type": "Feature",
      "properties": {
        "norad_id": 54225,
        "name": "EUTELSAT HOTBIRD 13G",
        "group": "eutelsat",
        "lat": 0.0377873584405304,
        "lon": -44.00379922928993,
        "alt_km": 35792.41177217792,
        "timestamp": "2025-12-10T14:53:36.793783+00:00",
        "meta_object_name": "EUTELSAT HOTBIRD 13G",
        "meta_object_id": "2022-146A",
        "meta_epoch": "2025-12-10T06:13:38.752320",
        "meta_mean_motion": 1.00268356,
        "meta_eccentricity": 0.00018859,
        "meta_inclination": 0.0515,
        "meta_ra_of_asc_node": 237.9533,
        "meta_arg_of_pericenter": 304.8699,
        "meta_mean_anomaly": 2.8172,
        "meta_ephemeris_type": 0,
        "meta_classification_type": "U",
        "meta_norad_cat_id": 54225,
        "meta_element_set_no": 999,
        "meta_rev_at_epoch": 557,
        "meta_bstar": 0,
        "meta_mean_motion_dot": 9e-07,
        "meta_mean_motion_ddot": 0,
        "tle_line1": "1 54225U 22146A   25344.25947630  .00000090  00000+0  00000+0 0  9994",
        "tle_line2": "2 54225   0.0515 237.9533 0001885 304.8699   2.8172  1.00268356  5572"
      },
      "geometry": {
        "type": "Point",
        "coordinates": [
          -44.00379922928993,
          0.0377873584405304
        ]
      }
    }
  ]
}